ORBCOMM FM05            
1 25117U 97084F   24354.58341882  .00002959  00000+0  88597-3 0  9995
2 25117  45.0131 149.6797 0000703  88.4498 271.6434 14.44716803414628
ORBCOMM FM06            
1 25118U 97084G   24353.17511089  .00003457  00000+0  10242-2 0  9993
2 25118  45.0122 156.3925 0000782 149.9083  20.6037 14.44890498415330
ORBCOMM FM07            
1 25119U 97084H   24354.53283303  .00002692  00000+0  80876-3 0  9991
2 25119  45.0119 150.5943 0001079  42.5252 317.5682 14.44769352415528
ORBCOMM FM03            
1 25158U 98007B   24354.30524139  .00003215  00000+0  11901-2 0  9994
2 25158 107.9669 126.2602 0047656 206.0596 153.8143 14.33617935398250
ORBCOMM FM04            
1 25159U 98007C   24354.32182339  .00002804  00000+0  10406-2 0  9991
2 25159 107.9660 129.3898 0043221 203.9167 155.9964 14.33888740398435
ORBCOMM FM17            
1 25413U 98046A   24354.54710056  .00001649  00000+0  63067-3 0  9992
2 25413  44.9960  25.0028 0002393 332.7011  27.3709 14.34373609377375
ORBCOMM FM18            
1 25414U 98046B   24354.29177562  .00002843  00000+0  98607-3 0  9999
2 25414  44.9937 308.2412 0003533  70.8188 289.3042 14.37561213378357
ORBCOMM FM19            
1 25415U 98046C   24354.59506612  .00002506  00000+0  87832-3 0  9999
2 25415  44.9948 308.5241 0002697  52.5258 117.8019 14.37377180378355
